CCSDS_OMM_VERS,COMMENT,CREATION_DATE,ORIGINATOR,OBJECT_NAME,OBJECT_ID,CENTER_NAME,REF_FRAME,TIME_SYSTEM,MEAN_ELEMENT_THEORY,EPOCH,MEAN_MOTION,ECCENTRICITY,INCLINATION,RA_OF_ASC_NODE,ARG_OF_PERICENTER,MEAN_ANOMALY,EPHEMERIS_TYPE,CLASSIFICATION_TYPE,NORAD_CAT_ID,ELEMENT_SET_NO,REV_AT_EPOCH,BSTAR,MEAN_MOTION_DOT,MEAN_MOTION_DDOT,SEMIMAJOR_AXIS,PERIOD,APOAPSIS,PERIAPSIS,OBJECT_TYPE,RCS_SIZE,COUNTRY_CODE,LAUNCH_DATE,SITE,DECAY_DATE,FILE,GP_ID,TLE_LINE0,TLE_LINE1,TLE_LINE2
"2.0","GENERATED VIA SPACE-TRACK.ORG API","2019-09-11T04:46:08","18 SPCS","AEOLUS","2018-066A","EARTH","TEME","UTC","SGP4","2019-09-10T17:42:44.875296","15.86740755","0.00053590","96.7265","259.3262","92.4438","322.5035","0","U","43600","999","6085","0.00000975700000","0.00002336","0.0000000000000","6689.564","90.752","315.014","307.844","PAYLOAD","LARGE","ESA","2018-08-22","FRGUI","","2597378","138916927","0 AEOLUS","1 43600U 18066A   19253.73801939 +.00002336 +00000-0 +97570-5 0  9991","2 43600 096.7265 259.3262 0005359 092.4438 322.5035 15.86740755060858"
"2.0","GENERATED VIA SPACE-TRACK.ORG API","2019-09-11T04:46:08","18 SPCS","STARLINK-44","2019-029AC","EARTH","TEME","UTC","SGP4","2019-09-10T18:54:34.631712","15.05490222","0.00020110","53.0019","39.7617","109.3295","250.7910","0","U","44261","999","1668","0.00007763500000","0.00000849","0.0000000000000","6928.138","95.649","551.396","548.610","PAYLOAD","LARGE","US","2019-05-24","AFETR","","2597378","138917476","0 STARLINK-44","1 44261U 19029AC  19253.78790083 +.00000849 +00000-0 +77635-4 0  9993","2 44261 053.0019 039.7617 0002011 109.3295 250.7910 15.05490222016688"
"2.0","GENERATED VIA SPACE-TRACK.ORG API","2019-09-11T16:00:13","18 SPCS","AEOLUS","2018-066A","EARTH","TEME","UTC","SGP4","2019-09-10T23:45:59.422176","15.86744959","0.00053870","96.7264","259.5745","90.2823","324.6101","0","U","43600","999","6089","0.00001318200000","0.00003205","0.0000000000000","6689.552","90.751","315.021","307.814","PAYLOAD","LARGE","ESA","2018-08-22","FRGUI","","2597466","138919399","0 AEOLUS","1 43600U 18066A   19253.99027109  .00003205  00000-0  13182-4 0  9990","2 43600  96.7264 259.5745 0005387  90.2823 324.6101 15.86744959 60891"
"2.0","GENERATED VIA SPACE-TRACK.ORG API","2019-09-11T16:10:14","18 SPCS","AEOLUS","2018-066A","EARTH","TEME","UTC","SGP4","2019-09-11T12:18:20.581344","15.86752691","0.00056060","96.7274","260.0911","90.6311","66.7072","0","U","43600","999","6097","0.00001743700000","0.00004286","0.0000000000000","6689.531","90.751","315.146","307.645","PAYLOAD","LARGE","ESA","2018-08-22","FRGUI","","2597497","138919988","0 AEOLUS","1 43600U 18066A   19254.51273821  .00004286  00000-0  17437-4 0  9990","2 43600  96.7274 260.0911 0005606  90.6311  66.7072 15.86752691 60976"
"2.0","GENERATED VIA SPACE-TRACK.ORG API","2019-09-11T22:30:18","18 SPCS","STARLINK-44","2019-029AC","EARTH","TEME","UTC","SGP4","2019-09-11T20:24:07.336224","15.05492746","0.00019560","53.0019","34.9942","111.3310","248.7887","0","U","44261","999","1684","0.00007518100000","0.00000814","0.0000000000000","6928.130","95.649","551.350","548.640","PAYLOAD","LARGE","US","2019-05-24","AFETR","","2599207","138972357","0 STARLINK-44","1 44261U 19029AC  19254.85008491  .00000814  00000-0  75181-4 0  9993","2 44261  53.0019  34.9942 0001956 111.3310 248.7887 15.05492746 16845"
"2.0","GENERATED VIA SPACE-TRACK.ORG API","2019-09-12T04:09:44","18 SPCS","AEOLUS","2018-066A","EARTH","TEME","UTC","SGP4","2019-09-11T22:29:21.921792","15.86753500","0.00058760","96.7246","260.5077","85.2100","334.3131","0","U","43600","999","6104","0.00001269300000","0.00003083","0.0000000000000","6689.528","90.751","315.324","307.463","PAYLOAD","LARGE","ESA","2018-08-22","FRGUI","","2599735","139002514","0 AEOLUS","1 43600U 18066A   19254.93705928 +.00003083 +00000-0 +12693-4 0  9997","2 43600 096.7246 260.5077 0005876 085.2100 334.3131 15.86753500061047"
"2.0","GENERATED VIA SPACE-TRACK.ORG API","2019-09-12T06:40:17","18 SPCS","AEOLUS","2018-066A","EARTH","TEME","UTC","SGP4","2019-09-12T01:34:27.737184","15.86785641","0.00062550","96.7241","260.6353","82.3437","351.0495","0","U","43600","999","6106","0.00003833100000","0.00009611","0.0000000000000","6689.438","90.749","315.487","307.119","PAYLOAD","LARGE","ESA","2018-08-22","FRGUI","","2599960","139027827","0 AEOLUS","1 43600U 18066A   19255.06559881  .00009611  00000-0  38331-4 0  9997","2 43600  96.7241 260.6353 0006255  82.3437 351.0495 15.86785641 61065"
"2.0","GENERATED VIA SPACE-TRACK.ORG API","2019-09-12T20:40:31","18 SPCS","AEOLUS","2018-066A","EARTH","TEME","UTC","SGP4","2019-09-12T18:21:13.434048","15.86823169","0.00058590","96.7244","261.3224","89.6490","14.8824","0","U","43600","999","6117","0.00006281300000","0.00015875","0.0000000000000","6689.333","90.747","315.117","307.278","PAYLOAD","LARGE","ESA","2018-08-22","FRGUI","","2600292","139073121","0 AEOLUS","1 43600U 18066A   19255.76473882  .00015875  00000-0  62813-4 0  9991","2 43600  96.7244 261.3224 0005859  89.6490  14.8824 15.86823169 61171"
"2.0","GENERATED VIA SPACE-TRACK.ORG API","2019-09-13T03:56:19","18 SPCS","STARLINK-44","2019-029AC","EARTH","TEME","UTC","SGP4","2019-09-12T20:18:04.086432","15.05495320","0.00018970","53.0020","30.5246","112.8061","247.3127","0","U","44261","999","1605","0.00007493700000","0.00000810","0.0000000000000","6928.122","95.649","551.301","548.673","PAYLOAD","LARGE","US","2019-05-24","AFETR","","2600416","139094299","0 STARLINK-44","1 44261U 19029AC  19255.84588063 +.00000810 +00000-0 +74937-4 0  9995","2 44261 053.0020 030.5246 0001897 112.8061 247.3127 15.05495320016055"
"2.0","GENERATED VIA SPACE-TRACK.ORG API","2019-09-13T03:56:19","18 SPCS","AEOLUS","2018-066A","EARTH","TEME","UTC","SGP4","2019-09-12T22:42:14.382720","15.86830076","0.00059680","96.7238","261.5013","87.3533","331.9297","0","U","43600","999","6120","0.00006517000000","0.00016483","0.0000000000000","6689.313","90.746","315.170","307.186","PAYLOAD","LARGE","ESA","2018-08-22","FRGUI","","2600416","139093751","0 AEOLUS","1 43600U 18066A   19255.94599980 +.00016483 +00000-0 +65170-4 0  9994","2 43600 096.7238 261.5013 0005968 087.3533 331.9297 15.86830076061202"
"2.0","GENERATED VIA SPACE-TRACK.ORG API","2019-09-13T06:50:18","18 SPCS","AEOLUS","2018-066A","EARTH","TEME","UTC","SGP4","2019-09-13T01:47:57.142752","15.86820470","0.00067100","96.7221","261.6273","82.5722","352.8980","0","U","43600","999","6122","0.00005190000000","0.00013093","0.0000000000000","6689.340","90.747","315.694","306.717","PAYLOAD","LARGE","ESA","2018-08-22","FRGUI","","2600771","139103153","0 AEOLUS","1 43600U 18066A   19256.07496693  .00013093  00000-0  51900-4 0  9996","2 43600  96.7221 261.6273 0006710  82.5722 352.8980 15.86820470 61226"
"2.0","GENERATED VIA SPACE-TRACK.ORG API","2019-09-13T14:40:17","18 SPCS","AEOLUS","2018-066A","EARTH","TEME","UTC","SGP4","2019-09-13T11:13:30.451584","15.86777545","0.00069560","96.7200","262.0124","73.5007","83.8646","0","U","43600","999","6128","-0.00000001030100","-0.00000140","0.0000000000000","6689.461","90.749","315.979","306.673","PAYLOAD","LARGE","ESA","2018-08-22","FRGUI","","2600994","139108088","0 AEOLUS","1 43600U 18066A   19256.46771356 -.00000140  00000-0 -10301-7 0  9995","2 43600  96.7200 262.0124 0006956  73.5007  83.8646 15.86777545 61281"
"2.0","GENERATED VIA SPACE-TRACK.ORG API","2019-09-13T22:20:18","18 SPCS","STARLINK-44","2019-029AC","EARTH","TEME","UTC","SGP4","2019-09-13T20:12:00.720000","15.05497735","0.00018380","53.0021","26.0550","114.7734","245.3446","0","U","44261","999","1714","0.00007512600000","0.00000813","0.0000000000000","6928.115","95.649","551.253","548.706","PAYLOAD","LARGE","US","2019-05-24","AFETR","","2601189","139130428","0 STARLINK-44","1 44261U 19029AC  19256.84167500  .00000813  00000-0  75126-4 0  9999","2 44261  53.0021  26.0550 0001838 114.7734 245.3446 15.05497735 17142"
"2.0","GENERATED VIA SPACE-TRACK.ORG API","2019-09-13T21:40:18","18 SPCS","AEOLUS","2018-066A","EARTH","TEME","UTC","SGP4","2019-09-13T21:20:13.387776","15.86740239","0.00061230","96.7193","262.4333","86.3983","316.0195","0","U","43600","999","6135","0.00000000000000","-0.00000137","0.0000000000000","6689.566","90.752","315.527","307.335","PAYLOAD","LARGE","ESA","2018-08-22","FRGUI","","2601138","139129705","0 AEOLUS","1 43600U 18066A   19256.88904384 -.00000137  00000-0  00000+0 0  9992","2 43600  96.7193 262.4333 0006123  86.3983 316.0195 15.86740239 61357"
"2.0","GENERATED VIA SPACE-TRACK.ORG API","2019-09-14T06:50:17","18 SPCS","AEOLUS","2018-066A","EARTH","TEME","UTC","SGP4","2019-09-14T02:00:59.062752","15.86744122","0.00066430","96.7169","262.6238","74.4492","0.9817","0","U","43600","999","6138","-0.00003452500000","-0.00008884","0.0000000000000","6689.555","90.751","315.864","306.976","PAYLOAD","LARGE","ESA","2018-08-22","FRGUI","","2601820","139182826","0 AEOLUS","1 43600U 18066A   19257.08401693 -.00008884  00000-0 -34525-4 0  9992","2 43600  96.7169 262.6238 0006643  74.4492   0.9817 15.86744122 61384"
"2.0","GENERATED VIA SPACE-TRACK.ORG API","2019-09-14T14:50:17","18 SPCS","AEOLUS","2018-066A","EARTH","TEME","UTC","SGP4","2019-09-14T12:47:35.460384","15.86741568","0.00073650","96.7184","263.0652","80.4660","38.2260","0","U","43600","999","6145","-0.00003132800000","-0.00008078","0.0000000000000","6689.562","90.752","316.354","306.500","PAYLOAD","LARGE","ESA","2018-08-22","FRGUI","","2602290","139193372","0 AEOLUS","1 43600U 18066A   19257.53304931 -.00008078  00000-0 -31328-4 0  9992","2 43600  96.7184 263.0652 0007365  80.4660  38.2260 15.86741568 61457"
